ASIASAT 6               
1 40141U 14052A   17345.87908341 -.00000368  00000-0  00000-0 0  9990
2 40141   0.0460 100.1347 0000664 205.1643 211.8520  1.00271060 11889
